YAOGAN-43 01G           
1 60464U 24148G   26068.44348481  .00010133  00000+0  35873-3 0  9993
2 60464  35.0006  62.0013 0007382 306.3543  53.6492 15.28332833 87004
STARLINK-33872          
1 64189U 25113V   26068.44848278  .00031019  00000+0  10544-2 0  9996
2 64189  53.1605  91.8609 0001442  59.9173 300.1971 15.30220217 44998
